#aV2022  2 21  0  0  0.00000000     288 DD+AD WGS84 FIT  NGA
## 2198  86400.00000000   300.00000000 59631 0.0000000000000
+   32     1  2  3  4  5  6  7  8  9 10 11 12 13 14 15 16 17
+         18 19 20 21 22 23 24 25 26 27 28 29 30 31 32  0  0
+          0  0  0  0  0  0  0  0  0  0  0  0  0  0  0  0  0
+          0  0  0  0  0  0  0  0  0  0  0  0  0  0  0  0  0
+          0  0  0  0  0  0  0  0  0  0  0  0  0  0  0  0  0
++         2  2  2  2  2  2  2  2  2  2  2  2  2  2  2  2  2
++         2  2  2  2  2  2  2  2  2  2  2  2  2  2  2  0  0
++         0  0  0  0  0  0  0  0  0  0  0  0  0  0  0  0  0
++         0  0  0  0  0  0  0  0  0  0  0  0  0  0  0  0  0
++         0  0  0  0  0  0  0  0  0  0  0  0  0  0  0  0  0
%c cc cc ccc ccc cccc cccc cccc cccc ccccc ccccc ccccc ccccc
%c cc cc ccc ccc cccc cccc cccc cccc ccccc ccccc ccccc ccccc
%f  0.0000000  0.000000000  0.00000000000  0.000000000000000
%f  0.0000000  0.000000000  0.00000000000  0.000000000000000
%i    0    0    0    0      0      0      0      0         0
%i    0    0    0    0      0      0      0      0         0
/*      NGA, ST. LOUIS,MO.                                  
/*   EPHEMERIS COMPUTED FROM 2 DAYS OF DATA                 
/*   EPOCHA v7 SMOOTHER                                     
/*   G2139 IERS2010 SATIGS SATAPC                           
*  2022  2 21  5 20  0.00000000
P  1    521.260388  15143.025813 -22056.432447    426.251075                    
V  1 -26128.489588   7939.360630   5234.365037     -0.094136                    
P  2  19340.006159 -15722.582808  10020.174826   -651.228009                    
V  2  11633.589614  -2602.516593 -28304.512247     -0.006434                    
P  3   9518.306073  20834.745935 -13639.628784   -131.035253                    
V  3 -14001.178692  -9958.029960 -25063.962026     -0.175542                    
P  4    370.628929  24998.813024   8847.132944   -188.282204                    
V  4  -5165.342912  10333.425826 -29077.706510      0.023338                    
P  5   5680.103213 -14601.278748  21267.336850    -72.167876                    
V  5  21634.595605  16842.214271   5888.704262     -0.013329                    
P  6  25633.152271  -5007.386840  -4978.439528    208.203005                    
V  6  -5460.398221   3811.984501 -31432.679213      0.120962                    
P  7  17261.980322   8517.530981  18885.924084    311.749995                    
V  7 -21520.731549   8353.484432  15744.243652      0.025814                    
P  8  -5971.254981  25614.470795   1856.012662    -57.006964                    
V  8  -2502.967666  -2907.032731  31961.397221     -0.015261                    
P  9   9076.508424  18007.893557  17198.685429   -353.244368                    
V  9  -5816.573827  21304.982685 -19190.846475      0.017177                    
P 10 -22268.542464  -9484.015597 -11126.428579   -326.329230                    
V 10  -9400.364062 -10850.669430  27421.477128     -0.106886                    
P 11  21507.847736 -12555.709986   9214.511198    -82.275293                    
V 11  11959.568319   -649.396324 -28803.394840      0.117183                    
P 12  -5353.046815 -20933.339534 -15799.567183   -174.185792                    
V 12  14795.026047  12813.865540 -22237.140386     -0.057133                    
P 13  13163.938223 -21552.485079   7800.419928    265.154302                    
V 13   -920.055380  10423.069719  29926.171398      0.062199                    
P 14  21956.410917  10522.186839 -10701.674207    -86.314786                    
V 14   7995.828795  11270.254098  27430.399137     -0.043440                    
P 15   2567.347085 -26232.924688    778.538632    -82.223493                    
V 15   3947.148083   1782.180991  31252.078539      0.028969                    
P 16 -10577.734967  10477.530739  21719.299534   -472.102089                    
V 16 -19543.146828 -20341.600733    744.893855     -0.047668                    
P 17  14367.649649   2716.403672 -21743.284345    577.860146                    
V 17  -7329.939317  27644.138515  -1317.103048      0.050092                    
P 18 -16980.940673  -8142.560244  18767.093766    235.662578                    
V 18  22316.150598  -8289.420073  16494.020001     -0.082246                    
P 19  16209.306478  -5448.017703 -20532.620589    121.700115                    
V 19  -6855.560967  24565.928102 -12262.918003      0.049912                    
P 20  14362.312175  -8586.501734  20576.078435    516.610476                    
V 20  21519.924880  15076.177653  -8975.529733     -0.001630                    
P 21  -9873.726410  17030.327015 -16844.191828    158.375091                    
V 21 -22039.746658   6842.227340  19714.369526      0.005999                    
P 22 -16124.525734   9307.107073 -18470.935195    216.739644                    
V 22   5222.533195 -23842.342319 -16404.626526      0.057140                    
P 23 -20724.833870 -16679.712850   -730.500614     -0.584755                    
V 23    925.595151  -2527.003388  31818.303947     -0.034486                    
P 24   3170.404174 -17392.095900 -20003.187249    273.348465                    
V 24  23575.485164  -8361.398390  11585.124112     -0.022952                    
P 25 -16579.970749 -20140.053946  -6022.881471    288.486469                    
V 25   7110.677936   2849.531332 -30273.547359      0.053207                    
P 26 -19664.102949   1106.236835  17876.464497    184.996287                    
V 26 -16752.452570 -15604.943808 -17072.324604      0.031712                    
P 27 -12290.580627  19961.631131  11896.243659    127.809102                    
V 27    761.989366 -15702.211495  27078.814606      0.153982                    
P 28  19612.160164   4044.432153 -16812.504039    395.919621                    
V 28  13957.036616  17657.851398  20140.365596     -0.082912                    
P 29  -5478.854812 -20295.693752  16154.134487   -482.795860                    
V 29   7037.348533 -19390.430989 -21965.281703     -0.046994                    
P 30  23400.654474   2401.360855  12635.764191   -514.643628                    
V 30 -14353.638172   7355.629455  25080.972754     -0.022724                    
P 31 -25998.354767   6086.053177  -2617.917479   -165.698634                    
V 31   2233.284041  -3380.944366 -31094.332563     -0.017697                    
P 32 -15614.830882   2178.881744 -21221.045233    -71.485514                    
V 32   4575.858642 -26907.002750  -6278.361811     -0.068883                    
EOF
